{
  "norad_id": 44495,
  "name": "BRO-1",
  "history": [
    {
      "epoch": "2026-03-28T22:17:51.995328Z",
      "apogee_km": 365.3272401751565,
      "perigee_km": 356.10296464033763,
      "latitude_deg": -1.851130330776905e-05,
      "longitude_deg": -119.0322386859669,
      "height_km": 362.8119120185362,
      "semi_major_axis_km": 6738.852102407746,
      "eccentricity": 0.00068441,
      "inclination_deg": 44.9996,
      "raan_deg": 41.7769,
      "arg_perigee_deg": 117.19,
      "mean_anomaly_deg": 242.9697,
      "mean_motion_rev_day": 15.69364681
    },
    {
      "epoch": "2026-03-29T04:24:29.196864Z",
      "apogee_km": 365.19543841249833,
      "perigee_km": 355.9108711172621,
      "latitude_deg": -3.699952612060205e-06,
      "longitude_deg": 147.58102721750637,
      "height_km": 362.8570836755154,
      "semi_major_axis_km": 6738.6901547648795,
      "eccentricity": 0.0006889,
      "inclination_deg": 44.9997,
      "raan_deg": 40.2961,
      "arg_perigee_deg": 119.904,
      "mean_anomaly_deg": 240.2544,
      "mean_motion_rev_day": 15.69421255
    },
    {
      "epoch": "2026-03-30T04:50:49.922016Z",
      "apogee_km": 364.6280377571138,
      "perigee_km": 355.1449434964052,
      "latitude_deg": 2.2666250002672416e-05,
      "longitude_deg": 134.06922150886737,
      "height_km": 362.8240108409971,
      "semi_major_axis_km": 6738.023490626759,
      "eccentricity": 0.0007037,
      "inclination_deg": 44.9998,
      "raan_deg": 34.3743,
      "arg_perigee_deg": 128.4312,
      "mean_anomaly_deg": 231.722,
      "mean_motion_rev_day": 15.6965418
    },
    {
      "epoch": "2026-03-30T06:22:28.292736Z",
      "apogee_km": 364.6085707541606,
      "perigee_km": 355.08106446406055,
      "latitude_deg": -9.995253114436584e-06,
      "longitude_deg": 110.7264860868166,
      "height_km": 362.8366593035177,
      "semi_major_axis_km": 6737.98181760911,
      "eccentricity": 0.000707,
      "inclination_deg": 44.9998,
      "raan_deg": 34.0042,
      "arg_perigee_deg": 129.0554,
      "mean_anomaly_deg": 231.0975,
      "mean_motion_rev_day": 15.69668742
    },
    {
      "epoch": "2026-03-30T21:38:49.092576Z",
      "apogee_km": 364.19042760109824,
      "perigee_km": 354.64573756890513,
      "latitude_deg": 2.6932599688796223e-05,
      "longitude_deg": -122.688759461433,
      "height_km": 362.7328336515518,
      "semi_major_axis_km": 6737.555082585001,
      "eccentricity": 0.00070832,
      "inclination_deg": 45.0001,
      "raan_deg": 30.3028,
      "arg_perigee_deg": 134.143,
      "mean_anomaly_deg": 226.0053,
      "mean_motion_rev_day": 15.69817871
    },
    {
      "epoch": "2026-03-31T20:33:11.102400Z",
      "apogee_km": 363.7351667875846,
      "perigee_km": 353.9557630415138,
      "latitude_deg": 2.2890897589383753e-05,
      "longitude_deg": -112.77439043332097,
      "height_km": 362.69402071090997,
      "semi_major_axis_km": 6736.9824649145485,
      "eccentricity": 0.0007258,
      "inclination_deg": 45.0002,
      "raan_deg": 24.7496,
      "arg_perigee_deg": 142.0642,
      "mean_anomaly_deg": 218.077,
      "mean_motion_rev_day": 15.70018018
    },
    {
      "epoch": "2026-04-01T19:27:22.718304Z",
      "apogee_km": 363.27070056778757,
      "perigee_km": 353.30079490114076,
      "latitude_deg": -2.807074361471481e-05,
      "longitude_deg": -102.81704160271725,
      "height_km": 362.58276869500446,
      "semi_major_axis_km": 6736.422747734464,
      "eccentricity": 0.00074,
      "inclination_deg": 45.0002,
      "raan_deg": 19.196,
      "arg_perigee_deg": 149.6968,
      "mean_anomaly_deg": 210.436,
      "mean_motion_rev_day": 15.70213697
    }
  ]
}